NORAD_CAT_ID,OBJECT_NAME,OBJECT_TYPE,EPOCH,MEAN_MOTION,ECCENTRICITY,INCLINATION,RA_OF_ASC_NODE,ARG_OF_PERICENTER,MEAN_ANOMALY,BSTAR,MEAN_MOTION_DOT,MEAN_MOTION_DDOT,TLE_LINE0,TLE_LINE1,TLE_LINE2,SEMIMAJOR_AXIS,PERIOD,APOGEE,PERIGEE,DECAYED
53292.0,STARLINK-4159,PAYLOAD,2022-08-28 22:00:00,15.73212988,0.0002536,53.217,228.204,23.3384,310.3401,-0.000113,-0.00016461,0.0,0 STARLINK-4159,1 53292U 22086BC  22240.91667824 -.00016461  00000-0 -11300-3 0  9990,2 53292  53.2170 228.2040 0002536  23.3384 310.3401 15.73212988  1300,6727.858,91.532,351.42900000000014,348.017,0.0
53292.0,STARLINK-4159,PAYLOAD,2022-08-29 14:00:01,15.7316378,0.0002765,53.2174,224.9067,22.3157,129.1893,-0.00032414,-0.00045805,0.0,0 STARLINK-4159,1 53292U 22086BC  22241.58334491 -.00045805  00000-0 -32414-3 0  9998,2 53292  53.2174 224.9067 0002765  22.3157 129.1893 15.73163780  1303,6727.998000000001,91.535,351.724,348.00300000000016,0.0
53292.0,STARLINK-4159,PAYLOAD,2022-08-29 22:00:00,15.73138437,0.0002559,53.2175,223.256,25.217,215.1582,0.00048866,0.00068345,0.0,0 STARLINK-4159,1 53292U 22086BC  22241.91667824  .00068345  00000-0  48866-3 0  9994,2 53292  53.2175 223.2560 0002559  25.2170 215.1582 15.73138437  1304,6728.071,91.537,351.657,348.214,0.0
53292.0,STARLINK-4159,PAYLOAD,2022-08-30 14:00:01,15.73227977,0.0002714,53.2169,219.9586,23.7968,34.3496,-0.00024938,-0.00035522,0.0,0 STARLINK-4159,1 53292U 22086BC  22242.58334491 -.00035522  00000-0 -24938-3 0  9996,2 53292  53.2169 219.9586 0002714  23.7968  34.3496 15.73227977  6463,6727.815,91.532,351.506,347.85400000000016,0.0
53292.0,STARLINK-4159,PAYLOAD,2022-08-30 22:00:00,15.73178669,0.0002449,53.2174,218.3079,24.7656,122.3311,0.00010558,0.00014209,0.0,0 STARLINK-4159,1 53292U 22086BC  22242.91667824  .00014209  00000-0  10558-3 0  9992,2 53292  53.2174 218.3079 0002449  24.7656 122.3311 15.73178669  1304,6727.956,91.534,351.469,348.173,0.0
53292.0,STARLINK-4159,PAYLOAD,2022-08-31 12:00:00,15.73221076,0.0002693,53.2174,215.4233,21.3096,191.3877,0.00014504,0.00019802,0.0,0 STARLINK-4159,1 53292U 22086BC  22243.50001157  .00019802  00000-0  14504-3 0  9998,2 53292  53.2174 215.4233 0002693  21.3096 191.3877 15.73221076  6608,6727.835,91.532,351.51199999999994,347.88800000000015,0.0
53292.0,STARLINK-4159,PAYLOAD,2022-08-31 14:00:01,15.732335699999998,0.0002625,53.2176,215.0103,21.9244,303.0083,2.4967e-05,2.888e-05,0.0,0 STARLINK-4159,1 53292U 22086BC  22243.58334491  .00002888  00000-0  24967-4 0  9997,2 53292  53.2176 215.0103 0002625  21.9244 303.0083 15.73233570  1303,6727.799,91.531,351.431,347.898,0.0
53292.0,STARLINK-4159,PAYLOAD,2022-08-31 22:00:00,15.73268999,0.0002469,53.2177,213.3598,23.5925,30.3002,-0.00046833,-0.0006604,0.0,0 STARLINK-4159,1 53292U 22086BC  22243.91667824 -.00066040  00000-0 -46833-3 0  9990,2 53292  53.2177 213.3598 0002469  23.5925  30.3002 15.73268999  1307,6727.698,91.529,351.225,347.902,0.0
53292.0,STARLINK-4159,PAYLOAD,2022-09-01 04:00:01,15.73206293,0.0002587,53.2173,212.1243,19.8945,10.8173,-7.7149e-05,-0.00011439,0.0,0 STARLINK-4159,1 53292U 22086BC  22244.16668981 -.00011439  00000-0 -77149-4 0  9990,2 53292  53.2173 212.1243 0002587  19.8945  10.8173 15.73206293  6719,6727.877,91.533,351.483,348.00199999999984,0.0
53292.0,STARLINK-4159,PAYLOAD,2022-09-01 14:00:01,15.73226541,0.0002460999999999,53.2168,210.0618,15.9911,215.8982,-0.00055443,-0.00077817,0.0,0 STARLINK-4159,1 53292U 22086BC  22244.58335648 -.00077817  00000-0 -55443-3 0  9991,2 53292  53.2168 210.0618 0002461  15.9911 215.8982 15.73226541  1300,6727.82,91.532,351.34,348.029,0.0
53292.0,STARLINK-4159,PAYLOAD,2022-09-01 22:00:00,15.73185836,0.0002266,53.2171,208.4115,17.0731,303.6729,0.00038229,0.00053344,0.0,0 STARLINK-4159,1 53292U 22086BC  22244.91667824  .00053344  00000-0  38229-3 0  9992,2 53292  53.2171 208.4115 0002266  17.0731 303.6729 15.73185836  1309,6727.936,91.534,351.325,348.276,0.0
53292.0,STARLINK-4159,PAYLOAD,2022-09-02 06:00:00,15.73208583,0.0002569999999999,53.2172,206.7643,17.488,32.1854,0.00017155,0.00023533,0.0,0 STARLINK-4159,1 53292U 22086BC  22245.25001157  .00023533  00000-0  17155-3 0  9993,2 53292  53.2172 206.7643 0002570  17.4880  32.1854 15.73208583  6880,6727.871,91.533,351.465,348.00699999999995,0.0
53292.0,STARLINK-4159,PAYLOAD,2022-09-02 14:00:01,15.73233276,0.0002517,53.2172,205.1135,19.6249,119.0034,-0.00040445,-0.0005708999999999,0.0,0 STARLINK-4159,1 53292U 22086BC  22245.58334491 -.00057090  00000-0 -40445-3 0  9994,2 53292  53.2172 205.1135 0002517  19.6249 119.0034 15.73233276  1307,6727.8,91.531,351.3590000000001,347.972,0.0
53292.0,STARLINK-4159,PAYLOAD,2022-09-02 20:00:01,15.73183625,0.0002419,53.2171,203.8755,25.1,90.2379,0.00049528,0.00069422,0.0,0 STARLINK-4159,1 53292U 22086BC  22245.83334491  .00069422  00000-0  49528-3 0  9993,2 53292  53.2171 203.8755 0002419  25.1000  90.2379 15.73183625  6979,6727.941999999999,91.534,351.434,348.17900000000014,0.0
53292.0,STARLINK-4159,PAYLOAD,2022-09-02 22:00:01,15.73209294,0.0002418,53.2171,203.4635,25.4945,202.1331,0.00028677,0.00039836,0.0,0 STARLINK-4159,1 53292U 22086BC  22245.91668981  .00039836  00000-0  28677-3 0  9994,2 53292  53.2171 203.4635 0002418  25.4945 202.1331 15.73209294  1307,6727.869000000002,91.533,351.36,348.107,0.0
53292.0,STARLINK-4159,PAYLOAD,2022-09-03 14:00:01,15.73215453,0.0002407,53.2162,200.165,22.057,23.4404,0.00016608,0.00022767,0.0,0 STARLINK-4159,1 53292U 22086BC  22246.58334491  .00022767  00000-0  16608-3 0  9990,2 53292  53.2162 200.1650 0002407  22.0570  23.4404 15.73215453  7094,6727.851,91.532,351.336,348.097,0.0
53292.0,STARLINK-4159,PAYLOAD,2022-09-03 22:00:00,15.73258186,0.0002356999999999,53.2164,198.515,27.1079,107.3459,-0.00034297,-0.00048604,0.0,0 STARLINK-4159,1 53292U 22086BC  22246.91667824 -.00048604  00000-0 -34297-3 0  9990,2 53292  53.2164 198.5150 0002357  27.1079 107.3459 15.73258186  1305,6727.729,91.53,351.18,348.009,0.0
53292.0,STARLINK-4159,PAYLOAD,2022-09-04 12:00:00,15.73292718,0.0002418,53.2163,195.6293,21.9469,178.2115,-0.0010885,-0.00151297,0.0,0 STARLINK-4159,1 53292U 22086BC  22247.50001157 -.00151297  00000-0 -10885-2 0  9996,2 53292  53.2163 195.6293 0002418  21.9469 178.2115 15.73292718  7236,6727.630999999999,91.528,351.12300000000016,347.869,0.0
53292.0,STARLINK-4159,PAYLOAD,2022-09-04 14:00:01,15.73249286,0.0002318,53.2165,195.2163,22.3409,290.1439,-0.00067134,-0.00094005,0.0,0 STARLINK-4159,1 53292U 22086BC  22247.58335648 -.00094005  00000-0 -67134-3 0  9992,2 53292  53.2165 195.2163 0002318  22.3409 290.1439 15.73249286  1305,6727.755,91.53,351.17900000000014,348.06,0.0
53292.0,STARLINK-4159,PAYLOAD,2022-09-04 16:00:00,15.73199151,0.0002243,53.2165,194.8036,21.175,43.4989,-8.8475e-05,-0.0001302,0.0,0 STARLINK-4159,1 53292U 22086BC  22247.66667824 -.00013020  00000-0 -88475-4 0  9995,2 53292  53.2165 194.8036 0002243  21.1750  43.4989 15.73199151  7267,6727.898,91.533,351.272,348.254,0.0
53292.0,STARLINK-4159,PAYLOAD,2022-09-04 20:00:01,15.7320184,0.0002230999999999,53.2164,193.9785,23.4484,265.6869,-0.00028137,-0.0003993,0.0,0 STARLINK-4159,1 53292U 22086BC  22247.83334491 -.00039930  00000-0 -28137-3 0  9991,2 53292  53.2164 193.9785 0002231  23.4484 265.6869 15.73201840  1306,6727.89,91.533,351.256,348.254,0.0
53292.0,STARLINK-4159,PAYLOAD,2022-09-05 04:00:00,15.73163678,0.0002498,53.2161,192.331,25.4826,352.6001,0.00047117,0.00065928,0.0,0 STARLINK-4159,1 53292U 22086BC  22248.16667824  .00065928  00000-0  47117-3 0  9990,2 53292  53.2161 192.3310 0002498  25.4826 352.6001 15.73163678  7337,6727.999,91.535,351.5440000000001,348.18300000000005,0.0
53292.0,STARLINK-4159,PAYLOAD,2022-09-05 14:00:01,15.73258278,0.0002275999999999,53.2158,190.2678,24.851,194.3704,-0.00061327,-0.0008603999999999,0.0,0 STARLINK-4159,1 53292U 22086BC  22248.58334491 -.00086040  00000-0 -61327-3 0  9996,2 53292  53.2158 190.2678 0002276  24.8510 194.3704 15.73258278  1307,6727.729,91.53,351.125,348.06300000000016,0.0
53292.0,STARLINK-4159,PAYLOAD,2022-09-05 20:00:01,15.73218986,0.000213,53.2159,189.03,27.5826,168.3663,-0.00058971,-0.00082651,0.0,0 STARLINK-4159,1 53292U 22086BC  22248.83334491 -.00082651  00000-0 -58971-3 0  9999,2 53292  53.2159 189.0300 0002130  27.5826 168.3663 15.73218986  7443,6727.840999999999,91.532,351.139,348.273,0.0
53292.0,STARLINK-4159,PAYLOAD,2022-09-05 22:00:00,15.73226681,0.0002162,53.2161,188.6182,26.1571,282.0212,-0.00092173,-0.00128191,0.0,0 STARLINK-4159,1 53292U 22086BC  22248.91667824 -.00128191  00000-0 -92173-3 0  9999,2 53292  53.2161 188.6182 0002162  26.1571 282.0212 15.73226681  1300,6727.819,91.532,351.139,348.23,0.0
53292.0,STARLINK-4159,PAYLOAD,2022-09-06 14:00:01,15.73046404,0.0002203,53.2165,185.3195,24.4275,101.4912,0.0009919,0.00140011,0.0,0 STARLINK-4159,1 53292U 22086BC  22249.58334491  .00140011  00000-0  99190-3 0  9993,2 53292  53.2165 185.3195 0002203  24.4275 101.4912 15.73046404  1304,6728.333000000001,91.542,351.68,348.716,0.0
53292.0,STARLINK-4159,PAYLOAD,2022-09-06 20:00:01,15.73142176,0.0002177,53.2167,184.0823,28.6819,73.8168,0.00070962,0.00099919,0.0,0 STARLINK-4159,1 53292U 22086BC  22249.83334491  .00099919  00000-0  70962-3 0  9997,2 53292  53.2167 184.0823 0002177  28.6819  73.8168 15.73142176  7607,6728.06,91.537,351.39,348.46,0.0
53292.0,STARLINK-4159,PAYLOAD,2022-09-06 22:00:00,15.7318297,0.0002189999999999,53.2166,183.6704,26.6141,188.0894,0.00024548,0.00033947,0.0,0 STARLINK-4159,1 53292U 22086BC  22249.91667824  .00033947  00000-0  24548-3 0  9993,2 53292  53.2166 183.6704 0002190  26.6141 188.0894 15.73182970  1302,6727.944,91.534,351.282,348.335,0.0
53292.0,STARLINK-4159,PAYLOAD,2022-09-07 04:00:00,15.73195156,0.0002372,53.2164,182.4348,23.7675,167.6253,0.00031739,0.00044151,0.0,0 STARLINK-4159,1 53292U 22086BC  22250.16667824  .00044151  00000-0  31739-3 0  9991,2 53292  53.2164 182.4348 0002372  23.7675 167.6253 15.73195156  7659,6727.909000000002,91.533,351.37,348.17800000000005,0.0
